[{"OBJECT_NAME":"QIANFAN-4","OBJECT_ID":"2024-140D","EPOCH":"2026-03-09T21:04:24.995712","MEAN_MOTION":13.5100067,"ECCENTRICITY":0.00115721,"INCLINATION":88.9712,"RA_OF_ASC_NODE":290.1387,"ARG_OF_PERICENTER":303.5402,"MEAN_ANOMALY":56.4643,"EPHEMERIS_TYPE":0,"CLASSIFICATION_TYPE":"U","NORAD_CAT_ID":60382,"ELEMENT_SET_NO":999,"REV_AT_EPOCH":7920,"BSTAR":9.7437554e-5,"MEAN_MOTION_DOT":7.5e-7,"MEAN_MOTION_DDOT":0},{"OBJECT_NAME":"THORAD AGENA D DEB","OBJECT_ID":"1970-025JW","EPOCH":"2026-03-09T07:13:50.365632","MEAN_MOTION":13.58046844,"ECCENTRICITY":0.00351016,"INCLINATION":99.9662,"RA_OF_ASC_NODE":181.8899,"ARG_OF_PERICENTER":141.1293,"MEAN_ANOMALY":245.5331,"EPHEMERIS_TYPE":0,"CLASSIFICATION_TYPE":"U","NORAD_CAT_ID":5153,"ELEMENT_SET_NO":999,"REV_AT_EPOCH":75565,"BSTAR":0.00073966753,"MEAN_MOTION_DOT":4.91e-6,"MEAN_MOTION_DDOT":0}]
